AKEBONO (EXOS-D)        
1 19822U 89016A   15172.51424759  .00046289  21255-6  10211-2 0  9996
2 19822  75.0393  21.6661 2099557 152.5776 222.4747 11.27439811825621
HST                     
1 20580U 90037B   15172.28542478  .00001409  00000-0  79150-4 0  9990
2 20580  28.4692 127.1021 0002736 281.6389 194.8482 15.07481917180432
POLAR                   
1 23802U 96013A   15168.83396070 -.00000276  00000-0  00000-0 0  9997
2 23802  78.6378 288.8457 7404578 354.3167   0.2973  1.29842561 92697
SWAS                    
1 25560U 98071A   15172.52573388  .00001205  00000-0  12611-3 0  9992
2 25560  69.9000 286.7404 0009768 216.3566 143.6927 14.92392460897088
ORSTED                  
1 25635U 99008B   15172.81365218  .00000243  00000-0  65620-4 0  9999
2 25635  96.4716 237.5775 0140672  44.4862  72.5755 14.47701371861135
CXO                     
1 25867U 99040B   15173.14384272 -.00000015  00000-0  00000+0 0  9994
2 25867  76.8709 307.4472 7547417 268.6122   0.2405  0.37797138 13309
XMM-NEWTON              
1 25989U 99066A   15173.96468059 -.00000331  00000-0  00000+0 0  9994
2 25989  66.2327  41.2546 8013538  93.5398 359.6924  0.50316868 17258
TERRA                   
1 25994U 99068A   15173.09394017  .00000235  00000-0  62341-4 0  9991
2 25994  98.2099 247.5860 0001649 104.5650 255.5755 14.57095350824930
CLUSTER II-FM6 (SALSA)  
1 26410U 00041A   15174.63692125  .00000464  00000-0  00000+0 0  9993
2 26410 132.3866 324.6924 5778150 135.9568 359.6057  0.44204095 14293
CLUSTER II-FM7 (SAMBA)  
1 26411U 00041B   15170.13033091  .00000214  00000-0  00000-0 0  9990
2 26411 131.5841 326.5181 6252266 141.5776 359.5498  0.44222266  2525
CLUSTER II-FM5 (RUMBA)  
1 26463U 00045A   15174.64211119  .00000434  00000-0  00000+0 0  9993
2 26463 134.9528 323.8572 5911272 138.8633 359.5263  0.44201943 14874
CLUSTER II-FM8 (TANGO)  
1 26464U 00045B   15174.63321960  .00000464  00000-0  00000+0 0  9992
2 26464 132.3858 324.6911 5777534 135.9512 359.5691  0.44213972 50212
ODIN                    
1 26702U 01007A   15173.14973749  .00001403  00000-0  10252-3 0  9997
2 26702  97.6398 186.5385 0012193  15.2012 344.9578 15.05233040782341
TIMED                   
1 26998U 01055B   15172.54520828  .00000563  00000-0  66384-4 0  9990
2 26998  74.0721 320.5601 0001344 223.9183 136.1891 14.87341483733425
RHESSI                  
1 27370U 02004A   15173.15998784  .00004223  00000-0  18678-3 0  9997
2 27370  38.0361 135.9342 0014000 282.5937  77.3265 15.21852239735339
INTEGRAL                
1 27540U 02048A   15175.90059997  .00000946  00000-0  00000+0 0  9997
2 27540  53.2606 217.7094 8153830 264.5746   0.1932  0.33408197 11646
CORIOLIS                
1 27640U 03001A   15172.50673314  .00000044  00000-0  42285-4 0  9991
2 27640  98.7513 181.2623 0013121 231.6811 281.9973 14.18843372644898
SORCE                   
1 27651U 03004A   15172.72313593  .00000996  00000-0  12144-3 0  9996
2 27651  39.9962  47.8317 0023322 180.0149 180.0642 14.87735449672521
MOST                    
1 27843U 03031D   15172.49379034  .00000028  00000-0  33329-4 0  9990
2 27843  98.7152 179.9469 0009099 313.2896  46.7521 14.20479736620783
SCISAT 1                
1 27858U 03036A   15172.47267222  .00000261  00000-0  42224-4 0  9997
2 27858  73.9317 181.8126 0006489  91.1856 269.0061 14.76817861638488
SWIFT                   
1 28485U 04047A   15173.12675273  .00001968  00000-0  11386-3 0  9998
2 28485  20.5555 164.8762 0012107  77.1097 283.0688 15.01845535578829
SUZAKU (ASTRO-EII)      
1 28773U 05025A   15171.83435622  .00002703  00000-0  14496-3 0  9996
2 28773  31.3843 324.5427 0005151 260.5314  99.4750 15.12939722546988
FORMOSAT-3 FM6          
1 29047U 06011A   15172.51449770  .00000120  00000-0  63607-4 0  9992
2 29047  71.9793 229.6845 0052031 323.6193  36.1410 14.28360766480992
FORMOSAT-3 FM1          
1 29048U 06011B   15173.18371841  .00000146  00000-0  74515-4 0  9998
2 29048  71.9675 141.2581 0046187 277.7105 173.2809 14.28319966483584
FORMOSAT-3 FM5          
1 29049U 06011C   15171.86851326  .00000127  00000-0  66896-4 0  9995
2 29049  72.0207 305.2805 0035977 322.1695 208.8733 14.28334466479165
FORMOSAT-3 FM3          
1 29050U 06011D   15172.76628792  .00000518  00000-0  12158-3 0  9991
2 29050  72.0170 274.5170 0049785  34.1290 326.3045 14.57873141490673
FORMOSAT-3 FM4          
1 29051U 06011E   15172.77555929  .00000104  00000-0  56666-4 0  9998
2 29051  72.0051 208.7614 0069060 197.5338 162.3415 14.28339860481884
FORMOSAT-3 FM2          
1 29052U 06011F   15172.79045705  .00000135  00000-0  69757-4 0  9996
2 29052  72.0355 277.5666 0042003 286.0734 244.4928 14.28437419480200
CLOUDSAT                
1 29107U 06016A   15172.84065034  .00000249  00000-0  65222-4 0  9994
2 29107  98.1934 116.3769 0001812  97.9868 262.1536 14.57118408486661
CALIPSO                 
1 29108U 06016B   15172.83958979  .00000433  00000-0  10620-3 0  9999
2 29108  98.1947 115.9372 0001506  81.9695 278.1675 14.57120471486587
HINODE (SOLAR-B)        
1 29479U 06041A   15172.64345914  .00000369  00000-0  78785-4 0  9991
2 29479  98.1462 172.3333 0016929 348.2652  11.8154 14.64454574467047
SJ-6C                   
1 29505U 06046A   15173.19207876  .00000307  00000-0  34281-4 0  9996
2 29505  97.7867 168.4431 0003536  15.7619 344.3715 14.93797881471466
SJ-6D                   
1 29506U 06046B   15173.19190812  .00000404  00000-0  44570-4 0  9998
2 29506  97.8021 167.3246 0003518  67.1336 293.0259 14.92797040471222
AGILE                   
1 31135U 07013A   15173.16074359  .00004695  00000-0  13920-3 0  9998
2 31135   2.4696 346.4836 0014785 253.0052 106.8381 15.25224077452472
AIM                     
1 31304U 07015A   15172.86814404  .00004129  00000-0  27073-3 0  9993
2 31304  97.9225 311.4315 0006835  87.9699 272.2310 15.08262912445270
FGRST (GLAST)           
1 33053U 08029A   15171.61137696  .00001429  00000-0  68144-4 0  9990
2 33053  25.5829 272.3682 0012912 149.7064 210.4219 15.09953641387182
IBEX                    
1 33401U 08051A   15171.07696920 -.00001749  00000-0  00000-0 0  9991
2 33401  14.4488 108.2175 4225800  51.3719   1.3097  0.09796707  2831
WISE                    
1 36119U 09071A   15172.82068213  .00003177  00000-0  13031-3 0  9992
2 36119  97.5014 188.0761 0003197  32.3148 327.8285 15.24987664305432
SDO                     
1 36395U 10005A   15173.25320350 -.00000039  00000-0  00000+0 0  9991
2 36395  28.1301 153.6298 0001543 200.4863 265.1435  1.00270929 19795
CRYOSAT 2               
1 36508U 10013A   15172.53211052  .00000039  00000-0  89180-5 0  9995
2 36508  92.0230  26.5735 0005865 302.8671  57.1971 14.52178504275707
PICARD                  
1 36598U 10028A   15173.22922265  .00000248  00000-0  74819-4 0  9996
2 36598  98.3056 357.3105 0003326  56.2737 303.8763 14.50325468265520
SPEKTR-R                
1 37755U 11037A   15176.75445799 -.00001937  00000-0  00000+0 0  9999
2 37755  55.0047 105.1267 6264186 208.9037 357.3616  0.11576711  1690
GCOM-W1 (SHIZUKU)       
1 38337U 12025A   15172.84084324  .00000253  00000-0  66271-4 0  9999
2 38337  98.1956 112.6269 0001059  85.9499 294.4003 14.57096197164596
NUSTAR                  
1 38358U 12031A   15173.04373291  .00001905  00000-0  13249-3 0  9997
2 38358   6.0254 175.7617 0012773 282.6395  77.2306 14.86590940164153
RBSP A                  
1 38752U 12046A   15170.98062386 -.00000073  00000-0  76142-4 0  9999
2 38752   9.8224 168.3450 6808849 200.4239 107.1988  2.67374494 27360
RBSP B                  
1 38753U 12046B   15171.03637840 -.00000069  00000-0  14981-3 0  9997
2 38753   9.8038 172.7479 6814688 191.9675 134.8612  2.65816492 27245
NEOSSAT                 
1 39089U 13009D   15173.12107159  .00000071  00000-0  41034-4 0  9999
2 39089  98.6039  10.8573 0009959 290.4854  69.5261 14.34251931121314
BRITE-AUSTRIA           
1 39091U 13009F   15173.10036783  .00000079  00000-0  43520-4 0  9994
2 39091  98.6034  11.6541 0009554 303.6639  56.3634 14.34891618121360
UNIBRITE                
1 39092U 13009G   15172.12894576  .00000075  00000-0  42278-4 0  9993
2 39092  98.6034  10.4905 0008345 299.5292  60.5061 14.34764152121214
IRIS                    
1 39197U 13033A   15172.48447243  .00000454  00000-0  70034-4 0  9992
2 39197  97.9079 355.3791 0028282   8.7148 351.4548 14.77815256106750
HISAKI (SPRINT-A)       
1 39253U 13049A   15172.87629426  .00000011  00000-0 -75039-4 0  9990
2 39253  29.7198  94.6848 0137226 254.5033 104.0348 13.55125919 87648
CASSIOPE                
1 39265U 13055A   15172.46393302  .00005909  00000-0  18327-3 0  9992
2 39265  80.9729  42.3509 0726037 183.7049 281.8490 14.13608292 88455
DANDE                   
1 39267U 13055C   15173.13620848  .00006640  00000-0  20889-3 0  9996
2 39267  81.0130  43.8956 0742277 187.1583 171.8518 14.09892237 88427
STSAT-3                 
1 39422U 13066G   15173.18298920  .00001597  00000-0  17622-3 0  9995
2 39422  97.7422 244.1221 0024971 114.2810 246.1015 14.88644290 85883
BRITE-PL                
1 39431U 13066R   15172.13736858  .00000249  00000-0  63821-4 0  9992
2 39431  97.6992 205.1565 0202857 206.5584 152.5105 14.46498863 83331
SWARM B                 
1 39451U 13067A   15172.83027613  .00001501  00000-0  68920-4 0  9991
2 39451  87.7546 104.9710 0001899  76.8337 283.3119 15.19616191 87488
SWARM A                 
1 39452U 13067B   15172.83283956  .00003224  00000-0  84430-4 0  9994
2 39452  87.3505  74.4521 0002023  80.5082 279.6401 15.38288884 88310
SWARM C                 
1 39453U 13067C   15172.83275135  .00003286  00000-0  86074-4 0  9999
2 39453  87.3506  75.8584 0002045  80.4474 279.7011 15.38291119 88272
BRITE-TORONTO           
1 40020U 14033L   15173.13724111  .00000360  00000-0  70464-4 0  9998
2 40020  97.9345  61.2001 0089508 112.8095 248.2594 14.65993196 53703
OCO 2                   
1 40059U 14035A   15172.83356256  .00000245  00000-0  64435-4 0  9992
2 40059  98.1950 113.7989 0001791  81.7440 278.3961 14.57110100 51622
BRITE-PL 2              
1 40119U 14049B   15172.77042596  .00000544  00000-0  72791-4 0  9992
2 40119  97.9904 249.5441 0016505 299.1672  60.7889 14.83478412 45433
RESURS P2               
1 40360U 14087A   15173.19903074  .00002760  00000-0  84495-4 0  9992
2 40360  97.2877 267.6182 0005782 168.7214 275.9550 15.34659833 27210
MMS 1                   
1 40482U 15011A   15172.50980115 -.00000411  00000-0  00000+0 0  9997
2 40482  29.0270  20.9892 8161982  37.5427 347.5358  1.00472602  1012
MMS 2                   
1 40483U 15011B   15172.54516020 -.00000412  00000-0  00000+0 0  9993
2 40483  29.0295  20.9079 8170901  37.6625 359.8949  1.00472379  1012
MMS 3                   
1 40484U 15011C   15172.50837175 -.00000411  00000-0  00000+0 0  9996
2 40484  29.0299  20.8606 8175211  37.7130 346.2963  1.00472345  1012
MMS 4                   
1 40485U 15011D   15172.31386465 -.00000409  00000-0  00000+0 0  9994
2 40485  29.0327  20.8429 8179309  37.6948 275.7422  1.00472417  1012
